NORAD_CAT_ID,OBJECT_NAME,OBJECT_TYPE,EPOCH,MEAN_MOTION,ECCENTRICITY,INCLINATION,RA_OF_ASC_NODE,ARG_OF_PERICENTER,MEAN_ANOMALY,BSTAR,MEAN_MOTION_DOT,MEAN_MOTION_DDOT,TLE_LINE0,TLE_LINE1,TLE_LINE2,SEMIMAJOR_AXIS,PERIOD,APOGEE,PERIGEE,DECAYED
54201.0,STARLINK-5199,PAYLOAD,2023-08-27 06:17:33,15.08847415,0.0001438,53.2163,188.2494,92.2197,267.896,3.1517e-06,-2.38e-06,0.0,0 STARLINK-5199,1 54201U 22141AW  23239.26218754 -.00000238  00000-0  31517-5 0  9992,2 54201  53.2163 188.2494 0001438  92.2197 267.8960 15.08847415 46524,6917.858,95.437,540.718,538.728,0.0
54201.0,STARLINK-5199,PAYLOAD,2023-08-28 02:57:34,15.08841651,0.0001515,53.2165,184.3818,103.8331,256.283,1.2258e-06,-2.68e-06,0.0,0 STARLINK-5199,1 54201U 22141AW  23240.12331044 -.00000268  00000-0  12258-5 0  9991,2 54201  53.2165 184.3818 0001515 103.8331 256.2830 15.08841651 46656,6917.875,95.437,540.788,538.692,0.0
54201.0,STARLINK-5199,PAYLOAD,2023-08-28 06:08:19,15.08846352,0.0001411,53.2179,183.7874,95.6815,264.4338,1.6375e-05,-2.7e-07,0.0,0 STARLINK-5199,1 54201U 22141AW  23240.25578672 -.00000027  00000-0  16375-4 0  9991,2 54201  53.2179 183.7874 0001411  95.6815 264.4338 15.08846352 46440,6917.861,95.437,540.702,538.75,0.0
54201.0,STARLINK-5199,PAYLOAD,2023-08-29 05:59:07,15.08842389,0.0001412,53.2171,179.3277,99.0223,261.0929,5.8093e-05,6.37e-06,0.0,0 STARLINK-5199,1 54201U 22141AW  23241.24938934  .00000637  00000-0  58093-4 0  9991,2 54201  53.2171 179.3277 0001412  99.0223 261.0929 15.08842389 46829,6917.873,95.437,540.715,538.761,0.0
54201.0,STARLINK-5199,PAYLOAD,2023-08-30 01:03:46,15.08830794,0.0001386,53.2177,175.761,94.3985,265.7165,-6.3439e-05,-1.297e-05,0.0,0 STARLINK-5199,1 54201U 22141AW  23242.04428329 -.00001297  00000-0 -63439-4 0  9997,2 54201  53.2177 175.7610 0001386  94.3985 265.7165 15.08830794 46942,6917.909,95.438,540.732,538.815,0.0
54201.0,STARLINK-5199,PAYLOAD,2023-08-30 12:11:27,15.08835818,0.0001272,53.2172,173.6796,89.2699,270.8439,1.0339e-06,-2.71e-06,0.0,0 STARLINK-5199,1 54201U 22141AW  23242.50796024 -.00000271  00000-0  10339-5 0  9990,2 54201  53.2172 173.6796 0001272  89.2699 270.8439 15.08835818 47010,6917.893,95.438,540.638,538.878,0.0
54201.0,STARLINK-5199,PAYLOAD,2023-08-31 02:29:55,15.08844822,0.0001274,53.2173,171.0052,97.0646,263.0491,6.4057e-05,7.32e-06,0.0,0 STARLINK-5199,1 54201U 22141AW  23243.10411421  .00000732  00000-0  64057-4 0  9998,2 54201  53.2173 171.0052 0001274  97.0646 263.0491 15.08844822 47106,6917.866,95.437,540.612,538.849,0.0
54201.0,STARLINK-5199,PAYLOAD,2023-08-31 05:40:41,15.0884702,0.0001249,53.2171,170.4081,95.8928,264.2206,0.0001096,1.457e-05,0.0,0 STARLINK-5199,1 54201U 22141AW  23243.23659035  .00001457  00000-0  10960-3 0  9995,2 54201  53.2171 170.4081 0001249  95.8928 264.2206 15.08847020 46895,6917.859,95.437,540.588,538.86,0.0
54201.0,STARLINK-5199,PAYLOAD,2023-08-31 21:34:37,15.08780946,0.0001053,53.2178,167.4414,93.8512,266.2601,-0.00041,-6.796e-05,0.0,0 STARLINK-5199,1 54201U 22141AW  23243.89904644 -.00006796  00000-0 -41000-3 0  9998,2 54201  53.2178 167.4414 0001053  93.8512 266.2601 15.08780946 47220,6918.061,95.441,540.654,539.197,0.0
54201.0,STARLINK-5199,PAYLOAD,2023-09-01 08:42:15,15.08842136,0.0001273,53.217,165.3528,83.9474,276.1663,7.2965e-05,8.74e-06,0.0,0 STARLINK-5199,1 54201U 22141AW  23244.36267829  .00000874  00000-0  72965-4 0  9992,2 54201  53.2170 165.3528 0001273  83.9474 276.1663 15.08842136 47291,6917.874,95.437,540.62,538.858,0.0
54201.0,STARLINK-5199,PAYLOAD,2023-09-01 18:14:34,15.08841467,0.0001744,53.2177,163.5684,88.2513,271.8679,-5.3569e-05,-1.141e-05,0.0,0 STARLINK-5199,1 54201U 22141AW  23244.76012421 -.00001141  00000-0 -53569-4 0  9991,2 54201  53.2177 163.5684 0001744  88.2513 271.8679 15.08841467 47123,6917.876,95.437,540.947,538.534,0.0
54201.0,STARLINK-5199,PAYLOAD,2023-09-02 00:36:06,15.08853686,0.0001677,53.2169,162.3796,84.9317,275.1867,1.3958e-05,-6.6e-07,0.0,0 STARLINK-5199,1 54201U 22141AW  23245.02507288 -.00000066  00000-0  13958-4 0  9993,2 54201  53.2169 162.3796 0001677  84.9317 275.1867 15.08853686 47396,6917.839,95.437,540.864,538.543,0.0
54201.0,STARLINK-5199,PAYLOAD,2023-09-02 03:46:52,15.08853059,0.0001416,53.2174,161.7851,88.2146,271.9008,6.4972e-05,7.47e-06,0.0,0 STARLINK-5199,1 54201U 22141AW  23245.15755081  .00000747  00000-0  64972-4 0  9990,2 54201  53.2174 161.7851 0001416  88.2146 271.9008 15.08853059 47187,6917.84,95.437,540.685,538.726,0.0
54201.0,STARLINK-5199,PAYLOAD,2023-09-03 00:26:54,15.08837199,0.000155,53.2181,157.9197,83.1061,277.0108,-2.1659e-05,-6.33e-06,0.0,0 STARLINK-5199,1 54201U 22141AW  23246.01868391 -.00000633  00000-0 -21659-4 0  9996,2 54201  53.2181 157.9197 0001550  83.1061 277.0108 15.08837199 47549,6917.889,95.438,540.826,538.682,0.0
54201.0,STARLINK-5199,PAYLOAD,2023-09-03 03:37:39,15.08846286,0.000139,53.2175,157.3231,92.8578,267.2573,5.8185e-05,6.38e-06,0.0,0 STARLINK-5199,1 54201U 22141AW  23246.15115529  .00000638  00000-0  58185-4 0  9996,2 54201  53.2175 157.3231 0001390  92.8578 267.2573 15.08846286 47563,6917.861,95.437,540.688,538.765,0.0
54201.0,STARLINK-5199,PAYLOAD,2023-09-03 11:34:36,15.08831637,0.0001356,53.2174,155.8343,105.8319,254.2823,3.9981e-05,3.48e-06,0.0,0 STARLINK-5199,1 54201U 22141AW  23246.48236298  .00000348  00000-0  39981-4 0  9990,2 54201  53.2174 155.8343 0001356 105.8319 254.2823 15.08831637 47387,6917.906,95.438,540.709,538.833,0.0
54201.0,STARLINK-5199,PAYLOAD,2023-09-04 11:25:23,15.08838642,0.0001544,53.2175,151.3762,85.8537,274.2632,-6.3305e-05,-1.295e-05,0.0,0 STARLINK-5199,1 54201U 22141AW  23247.47596636 -.00001295  00000-0 -63305-4 0  9996,2 54201  53.2175 151.3762 0001544  85.8537 274.2632 15.08838642 47532,6917.885,95.438,540.818,538.681,0.0
54201.0,STARLINK-5199,PAYLOAD,2023-09-04 13:00:46,15.08834482,0.0001352,53.2167,151.0794,91.2334,268.8813,4.0436e-05,3.56e-06,0.0,0 STARLINK-5199,1 54201U 22141AW  23247.54220622  .00000356  00000-0  40436-4 0  9998,2 54201  53.2167 151.0794 0001352  91.2334 268.8813 15.08834482 47772,6917.897,95.438,540.698,538.827,0.0
54201.0,STARLINK-5199,PAYLOAD,2023-09-05 00:08:28,15.08846099,0.000133,53.2168,148.9979,92.7847,267.3298,-1.8106e-05,-5.76e-06,0.0,0 STARLINK-5199,1 54201U 22141AW  23248.00588287 -.00000576  00000-0 -18106-4 0  9999,2 54201  53.2168 148.9979 0001330  92.7847 267.3298 15.08846099 47840,6917.862,95.437,540.647,538.807,0.0
54201.0,STARLINK-5199,PAYLOAD,2023-09-05 03:19:14,15.08848414,0.0001347,53.2166,148.4032,91.8463,268.2683,5.1886e-06,-2.05e-06,0.0,0 STARLINK-5199,1 54201U 22141AW  23248.13836041 -.00000205  00000-0  51886-5 0  9998,2 54201  53.2166 148.4032 0001347  91.8463 268.2683 15.08848414 47633,6917.855,95.437,540.652,538.788,0.0
54201.0,STARLINK-5199,PAYLOAD,2023-09-06 03:10:01,15.08843301,0.0001347,53.2169,143.9434,84.279,275.8355,0.00010135,1.326e-05,0.0,0 STARLINK-5199,1 54201U 22141AW  23249.13196075  .00001326  00000-0  10135-3 0  9999,2 54201  53.2169 143.9434 0001347  84.2790 275.8355 15.08843301 48014,6917.87,95.437,540.667,538.803,0.0
54201.0,STARLINK-5199,PAYLOAD,2023-09-07 03:00:48,15.08846006,0.0001385,53.217,139.483,82.4953,277.6197,3.1706e-05,2.17e-06,0.0,0 STARLINK-5199,1 54201U 22141AW  23250.12556056  .00000217  00000-0  31706-4 0  9995,2 54201  53.2170 139.4830 0001385  82.4953 277.6197 15.08846006 47938,6917.862,95.437,540.685,538.769,0.0
54201.0,STARLINK-5199,PAYLOAD,2023-09-08 01:16:12,15.08832536,0.0001508,53.2173,135.3199,83.3104,276.806,5.786e-05,6.33e-06,0.0,0 STARLINK-5199,1 54201U 22141AW  23251.05292719  .00000633  00000-0  57860-4 0  9992,2 54201  53.2173 135.3199 0001508  83.3104 276.8060 15.08832536 48304,6917.903,95.438,540.811,538.725,0.0
54201.0,STARLINK-5199,PAYLOAD,2023-09-08 21:56:13,15.08837503,0.000136,53.2173,131.4537,73.1895,286.9246,-2.2206e-06,-3.23e-06,0.0,0 STARLINK-5199,1 54201U 22141AW  23251.91404899 -.00000323  00000-0 -22206-5 0  9996,2 54201  53.2173 131.4537 0001360  73.1895 286.9246 15.08837503 48203,6917.888,95.438,540.694,538.812,0.0
54201.0,STARLINK-5199,PAYLOAD,2023-09-09 09:03:55,15.08841816,0.0001328,53.2171,129.3724,80.8878,279.2265,3.0313e-05,1.95e-06,0.0,0 STARLINK-5199,1 54201U 22141AW  23252.37772496  .00000195  00000-0  30313-4 0  9990,2 54201  53.2171 129.3724 0001328  80.8878 279.2265 15.08841816 48506,6917.875,95.437,540.659,538.821,0.0
54201.0,STARLINK-5199,PAYLOAD,2023-09-09 23:22:33,15.08721222,0.0001639,53.2175,126.6954,54.7921,305.3225,-0.00087174,-0.0001409,0.0,0 STARLINK-5199,1 54201U 22141AW  23252.97399665 -.00014090  00000-0 -87174-3 0  9996,2 54201  53.2175 126.6954 0001639  54.7921 305.3225 15.08721222 48593,6918.243,95.445,541.242,538.975,0.0
54201.0,STARLINK-5199,PAYLOAD,2023-09-10 04:08:53,15.08604066,0.0001164,53.2175,125.8047,73.2796,286.8323,-0.001804,-0.00028699,0.0,0 STARLINK-5199,1 54201U 22141AW  23253.17283621 -.00028699  00000-0 -18040-2 0  9998,2 54201  53.2175 125.8047 0001164  73.2796 286.8323 15.08604066 48628,6918.602,95.452,541.272,539.661,0.0
54201.0,STARLINK-5199,PAYLOAD,2023-09-10 15:16:57,15.08411667,9.52e-05,53.2174,123.7247,100.6953,259.4146,-0.0031573,-0.00049607,0.0,0 STARLINK-5199,1 54201U 22141AW  23253.63677337 -.00049607  00000-0 -31573-2 0  9998,2 54201  53.2174 123.7247 0000952 100.6953 259.4146 15.08411667 48699,6919.19,95.465,541.714,540.396,0.0
54201.0,STARLINK-5199,PAYLOAD,2023-09-10 23:14:22,15.08129191,0.0001176,53.2174,122.239,91.7385,268.3741,-0.0052323,-0.00081036,0.0,0 STARLINK-5199,1 54201U 22141AW  23253.96832074 -.00081036  00000-0 -52323-2 0  9993,2 54201  53.2174 122.2390 0001176  91.7385 268.3741 15.08129191 48744,6920.054,95.483,542.733,541.105,0.0
54201.0,STARLINK-5199,PAYLOAD,2023-09-11 14:00:01,15.07189607,0.0001245,53.2155,119.4832,90.9639,9.8729,0.0017785,0.00026881,0.0,0 STARLINK-5199,1 54201U 22141AW  23254.58334491  .00026881  00000-0  17785-2 0  9990,2 54201  53.2155 119.4832 0001245  90.9639   9.8729 15.07189607 48833,6922.93,95.542,545.656,543.933,0.0
